OBJECT_NAME,OBJECT_ID,EPOCH,MEAN_MOTION,ECCENTRICITY,INCLINATION,RA_OF_ASC_NODE,ARG_OF_PERICENTER,MEAN_ANOMALY,EPHEMERIS_TYPE,CLASSIFICATION_TYPE,NORAD_CAT_ID,ELEMENT_SET_NO,REV_AT_EPOCH,BSTAR,MEAN_MOTION_DOT,MEAN_MOTION_DDOT
STARLINK-36108,2025-281W,2026-06-18T14:11:43.752768,15.27575703,.0000925,43.0008,133.9334,252.5216,107.5534,0,U,66868,999,3160,.494E-3,.13355E-3,0
STARLINK-36092,2025-281X,2026-06-18T14:02:26.134080,15.27558043,.0000688,43.0000,133.8838,217.1684,142.9120,0,U,66869,999,3160,.57157E-3,.15489E-3,0
STARLINK-36114,2025-281Y,2026-06-17T04:59:36.602592,15.27596527,.00001668,43.0022,141.6094,232.9426,127.1411,0,U,66870,999,3139,.4174517E-3,.11249E-3,0
STARLINK-36095,2025-281Z,2026-06-18T07:34:42.077856,15.27611049,.0001372,43.0008,135.2994,259.1588,100.9109,0,U,66871,999,3155,.5367E-3,.1455E-3,0
STARLINK-36082,2025-281AA,2026-06-17T04:48:31.730400,15.27574540,.00021113,43.0032,141.5505,278.1064,81.9548,0,U,66872,999,3139,.44675062E-3,.1205E-3,0
STARLINK-36128,2025-281AB,2026-06-18T15:05:08.861856,15.27585499,.0001185,43.0011,133.3480,288.5597,71.5126,0,U,66873,999,3156,.65315E-3,.17757E-3,0
STARLINK-36129,2025-281AC,2026-06-18T05:49:27.272064,15.27578515,.000158,43.0020,135.6116,267.8358,92.2313,0,U,66874,999,3155,.60454E-3,.1641E-3,0
STARLINK-36053,2025-281AD,2026-06-18T14:59:35.217024,15.27592515,.0002175,43.0032,133.3172,270.1071,89.9531,0,U,66875,999,3156,.40862E-3,.11003E-3,0
STARLINK-35702,2025-281AE,2026-06-17T21:53:07.533600,15.27583825,.00047642,43.0137,137.4351,279.5921,80.4393,0,U,66876,999,3150,.46323328E-3,.1251E-3,0
STARLINK-35866,2025-283A,2026-06-18T14:07:00.460128,15.30207826,.0004693,53.1610,275.4078,105.0267,255.1254,0,U,66878,999,3129,.87336E-3,.25608E-3,0
STARLINK-35749,2025-283B,2026-06-18T16:58:21.681696,15.30210784,.0001155,53.1583,274.7222,82.6733,277.4399,0,U,66879,999,3131,.61598E-3,.17935E-3,0
STARLINK-35844,2025-283C,2026-06-18T15:31:54.060672,15.30191604,.0000927,53.1586,275.0576,81.1828,278.9278,0,U,66880,999,3130,.83872E-3,.24557E-3,0
STARLINK-35860,2025-283D,2026-06-18T16:49:14.824128,15.30217070,.0000576,53.1598,274.6810,85.4574,274.6492,0,U,66881,999,3131,.86188E-3,.25267E-3,0
STARLINK-35912,2025-283E,2026-06-18T13:27:42.897024,15.34410215,.0001442,53.1611,274.5319,74.8506,285.2656,0,U,66882,999,3130,.55077E-3,.18284E-3,0
STARLINK-35947,2025-283F,2026-06-18T16:47:25.382112,15.34405910,.000114,53.1594,273.9726,77.6084,282.5046,0,U,66883,999,3134,.96872E-3,.32501E-3,0
STARLINK-36057,2025-283G,2026-06-18T06:36:17.809632,15.34414283,.000141,53.1596,276.3026,67.0192,293.0959,0,U,66884,999,3125,.64738E-3,.21569E-3,0
STARLINK-35954,2025-283H,2026-06-18T18:48:29.190816,15.34396687,.0001119,53.1583,273.7843,83.8591,276.2539,0,U,66885,999,3133,.46685E-3,.15428E-3,0
STARLINK-35900,2025-283J,2026-06-18T17:02:33.719136,15.34407256,.0001191,53.1582,274.0345,99.5947,260.5190,0,U,66886,999,3132,.35066E-3,.11492E-3,0
STARLINK-35925,2025-283K,2026-06-18T03:25:40.303776,15.34408162,.00011669,53.1585,276.8941,86.2017,273.9119,0,U,66887,999,3123,.63221868E-3,.2105E-3,0
STARLINK-35919,2025-283L,2026-06-18T14:40:25.974336,15.34412185,.0001664,53.1605,274.8369,42.8356,317.2776,0,U,66888,999,3130,.76708E-3,.25639E-3,0
STARLINK-35852,2025-283M,2026-06-18T16:59:32.476128,15.34395330,.0001192,53.1574,274.0208,86.0937,274.0201,0,U,66889,999,3132,.55487E-3,.18414E-3,0
STARLINK-35885,2025-283N,2026-06-18T14:10:07.600800,15.34412811,.0001252,53.1595,274.7057,80.0998,280.0146,0,U,66890,999,3130,.43184E-3,.14248E-3,0
STARLINK-35855,2025-283P,2026-06-18T14:37:23.623680,15.34398001,.0002029,53.1600,274.8216,52.2311,307.8875,0,U,66891,999,3130,.56736E-3,.1884E-3,0
STARLINK-35883,2025-283Q,2026-06-18T14:10:00.891840,15.30192185,.0000537,53.1592,275.4147,333.2710,26.8263,0,U,66892,999,3129,.48705E-3,.1409E-3,0
STARLINK-36033,2025-283R,2026-06-18T13:36:45.870912,15.30198921,.0002231,53.1607,275.9800,93.1486,266.9770,0,U,66893,999,3128,.73291E-3,.2141E-3,0
STARLINK-35718,2025-283S,2026-06-18T17:09:00.150048,15.30213480,.0001098,53.1587,274.7682,83.4406,276.6720,0,U,66894,999,3131,.62895E-3,.18322E-3,0
STARLINK-35971,2025-283T,2026-06-18T16:56:31.030080,15.34423704,.0000868,53.1590,274.0069,84.9934,275.1167,0,U,66895,999,3132,.80634E-3,.26986E-3,0
STARLINK-35791,2025-283U,2026-06-18T13:45:40.401792,15.30238251,.0001137,53.1596,275.3061,114.2328,245.8791,0,U,66896,999,3129,.86926E-3,.25505E-3,0
STARLINK-36079,2025-283V,2026-06-18T14:34:22.270080,15.34415598,.0001959,53.1585,274.8107,51.0275,309.0902,0,U,66897,999,3129,.75614E-3,.2527E-3,0
STARLINK-36065,2025-283W,2026-06-18T13:24:40.899744,15.34412164,.0001697,53.1623,274.5143,69.7347,290.3838,0,U,66898,999,3130,.51119E-3,.16941E-3,0
