STARLINK-36108          
1 66868U 25281W   26169.59147862  .00013355  00000+0  49400-3 0  9994
2 66868  43.0008 133.9334 0000925 252.5216 107.5534 15.27575703 31603
STARLINK-36092          
1 66869U 25281X   26169.58502470  .00015489  00000+0  57157-3 0  9992
2 66869  43.0000 133.8838 0000688 217.1684 142.9120 15.27558043 31608
STARLINK-36114          
1 66870U 25281Y   26168.20806253  .00011249  00000+0  41745-3 0  9994
2 66870  43.0022 141.6094 0000166 232.9426 127.1411 15.27596527 31398
STARLINK-36095          
1 66871U 25281Z   26169.31576479  .00014550  00000+0  53670-3 0  9990
2 66871  43.0008 135.2994 0001372 259.1588 100.9109 15.27611049 31559
STARLINK-36082          
1 66872U 25281AA  26168.20036725  .00012050  00000+0  44675-3 0  9991
2 66872  43.0032 141.5505 0002111 278.1064  81.9548 15.27574540 31398
STARLINK-36128          
1 66873U 25281AB  26169.62857480  .00017757  00000+0  65315-3 0  9991
2 66873  43.0011 133.3480 0001185 288.5597  71.5126 15.27585499 31564
STARLINK-36129          
1 66874U 25281AC  26169.24267676  .00016410  00000+0  60454-3 0  9996
2 66874  43.0020 135.6116 0001580 267.8358  92.2313 15.27578515 31558
STARLINK-36053          
1 66875U 25281AD  26169.62471316  .00011003  00000+0  40862-3 0  9991
2 66875  43.0032 133.3172 0002174 270.1071  89.9531 15.27592515 31560
STARLINK-35702          
1 66876U 25281AE  26168.91189275  .00012510  00000+0  46323-3 0  9995
2 66876  43.0137 137.4351 0004764 279.5921  80.4393 15.27583825 31505
STARLINK-35866          
1 66878U 25283A   26169.58819977  .00025608  00000+0  87336-3 0  9993
2 66878  53.1610 275.4078 0004693 105.0267 255.1254 15.30207826 31292
STARLINK-35749          
1 66879U 25283B   26169.70719540  .00017935  00000+0  61598-3 0  9999
2 66879  53.1583 274.7222 0001154  82.6733 277.4399 15.30210784 31319
STARLINK-35844          
1 66880U 25283C   26169.64715349  .00024557  00000+0  83872-3 0  9994
2 66880  53.1586 275.0576 0000927  81.1828 278.9278 15.30191604 31306
STARLINK-35860          
1 66881U 25283D   26169.70086603  .00025267  00000+0  86188-3 0  9998
2 66881  53.1598 274.6810 0000576  85.4574 274.6492 15.30217070 31319
STARLINK-35912          
1 66882U 25283E   26169.56091316  .00018284  00000+0  55077-3 0  9994
2 66882  53.1611 274.5319 0001442  74.8506 285.2656 15.34410215 31308
STARLINK-35947          
1 66883U 25283F   26169.69959933  .00032501  00000+0  96872-3 0  9993
2 66883  53.1594 273.9726 0001139  77.6084 282.5046 15.34405910 31342
STARLINK-36057          
1 66884U 25283G   26169.27520613  .00021569  00000+0  64738-3 0  9995
2 66884  53.1596 276.3026 0001410  67.0192 293.0959 15.34414283 31253
STARLINK-35954          
1 66885U 25283H   26169.78367120  .00015428  00000+0  46685-3 0  9992
2 66885  53.1583 273.7843 0001118  83.8591 276.2539 15.34396687 31335
STARLINK-35900          
1 66886U 25283J   26169.71011249  .00011492  00000+0  35066-3 0  9992
2 66886  53.1582 274.0345 0001191  99.5947 260.5190 15.34407256 31329
STARLINK-35925          
1 66887U 25283K   26169.14282759  .00021050  00000+0  63222-3 0  9992
2 66887  53.1585 276.8941 0001166  86.2017 273.9119 15.34408162 31234
STARLINK-35919          
1 66888U 25283L   26169.61141174  .00025639  00000+0  76708-3 0  9990
2 66888  53.1605 274.8369 0001664  42.8356 317.2776 15.34412185 31306
STARLINK-35852          
1 66889U 25283M   26169.70801478  .00018414  00000+0  55487-3 0  9995
2 66889  53.1574 274.0208 0001191  86.0937 274.0201 15.34395330 31323
STARLINK-35885          
1 66890U 25283N   26169.59036575  .00014248  00000+0  43184-3 0  9994
2 66890  53.1595 274.7057 0001252  80.0998 280.0146 15.34412811 31303
STARLINK-35855          
1 66891U 25283P   26169.60930121  .00018840  00000+0  56736-3 0  9996
2 66891  53.1600 274.8216 0002028  52.2311 307.8875 15.34398001 31302
STARLINK-35883          
1 66892U 25283Q   26169.59028810  .00014090  00000+0  48705-3 0  9998
2 66892  53.1592 275.4147 0000537 333.2710  26.8263 15.30192185 31299
STARLINK-36033          
1 66893U 25283R   26169.56719758  .00021410  00000+0  73291-3 0  9996
2 66893  53.1607 275.9800 0002231  93.1486 266.9770 15.30198921 31286
STARLINK-35718          
1 66894U 25283S   26169.71458507  .00018322  00000+0  62895-3 0  9992
2 66894  53.1587 274.7682 0001098  83.4406 276.6720 15.30213480 31318
STARLINK-35971          
1 66895U 25283T   26169.70591470  .00026986  00000+0  80634-3 0  9995
2 66895  53.1590 274.0069 0000867  84.9934 275.1167 15.34423704 31326
STARLINK-35791          
1 66896U 25283U   26169.57338428  .00025505  00000+0  86926-3 0  9999
2 66896  53.1596 275.3061 0001137 114.2328 245.8791 15.30238251 31294
STARLINK-36079          
1 66897U 25283V   26169.60720221  .00025270  00000+0  75614-3 0  9991
2 66897  53.1585 274.8107 0001958  51.0275 309.0902 15.34415598 31290
STARLINK-36065          
1 66898U 25283W   26169.55880671  .00016941  00000+0  51119-3 0  9991
2 66898  53.1623 274.5143 0001697  69.7347 290.3838 15.34412164 31305
